start=new Date('2023-02-16T00:00:00.000Z').valueOf();
sats=[{"REV_AT_EPOCH":"2692","OBJECT_TYPE":"PAYLOAD","FILE":"3795153","BSTAR":"0.00012770000000","NORAD_CAT_ID":"53603","EPHEMERIS_TYPE":"0","MEAN_ANOMALY":"281.9772","TIME_SYSTEM":"UTC","MEAN_MOTION_DOT":"0.00001745","ECCENTRICITY":"0.00014920","GP_ID":"225555503","SITE":"AFETR","CENTER_NAME":"EARTH","SEMIMAJOR_AXIS":"6917.857","ARG_OF_PERICENTER":"78.1387","TLE_LINE1":"1 53603U 22104R   23046.84455676  .00001745  00000-0  12770-3 0  9993","REF_FRAME":"TEME","RA_OF_ASC_NODE":"217.6563","MEAN_MOTION":"15.08847533","PERIOD":"95.437","EPOCH":"2023-02-15T20:16:09.704064","OBJECT_NAME":"STARLINK-4692","TLE_LINE2":"2 53603  53.2134 217.6563 0001492  78.1387 281.9772 15.08847533 26926","CLASSIFICATION_TYPE":"U","COUNTRY_CODE":"US","DECAY_DATE":null,"MEAN_ELEMENT_THEORY":"SGP4","PERIAPSIS":"538.690","INCLINATION":"53.2134","RCS_SIZE":"LARGE","APOAPSIS":"540.755","OBJECT_ID":"2022-104R","MEAN_MOTION_DDOT":"0.0000000000000","ELEMENT_SET_NO":"999","LAUNCH_DATE":"2022-08-28"},{"PERIOD":"95.420","EPOCH":"2023-02-15T22:32:31.529184","OBJECT_NAME":"STARLINK-4690","CLASSIFICATION_TYPE":"U","TLE_LINE2":"2 53604  53.2132 216.8339 0001358  95.4715 264.6432 15.09115939 26251","COUNTRY_CODE":"US","DECAY_DATE":null,"MEAN_ELEMENT_THEORY":"SGP4","PERIAPSIS":"537.963","INCLINATION":"53.2132","APOAPSIS":"539.841","RCS_SIZE":"LARGE","OBJECT_ID":"2022-104S","MEAN_MOTION_DDOT":"0.0000000000000","ELEMENT_SET_NO":"999","LAUNCH_DATE":"2022-08-28","REV_AT_EPOCH":"2625","OBJECT_TYPE":"PAYLOAD","FILE":"3794477","BSTAR":"-0.00316340000000","EPHEMERIS_TYPE":"0","NORAD_CAT_ID":"53604","MEAN_ANOMALY":"264.6432","TIME_SYSTEM":"UTC","MEAN_MOTION_DOT":"-0.00050660","GP_ID":"225514408","ECCENTRICITY":"0.00013580","SITE":"AFETR","CENTER_NAME":"EARTH","SEMIMAJOR_AXIS":"6917.037","ARG_OF_PERICENTER":"95.4715","TLE_LINE1":"1 53604U 22104S   23046.93925381 -.00050660  00000-0 -31634-2 0  9990","REF_FRAME":"TEME","RA_OF_ASC_NODE":"216.8339","MEAN_MOTION":"15.09115939"},{"REF_FRAME":"TEME","RA_OF_ASC_NODE":"223.2220","MEAN_MOTION":"15.08836786","SITE":"AFETR","CENTER_NAME":"EARTH","SEMIMAJOR_AXIS":"6917.890","ARG_OF_PERICENTER":"79.7146","TLE_LINE1":"1 53605U 22104T   23046.59467386  .00025575  00000-0  16193-2 0  9997","MEAN_MOTION_DOT":"0.00025575","GP_ID":"225554508","ECCENTRICITY":"0.00013410","REV_AT_EPOCH":"2682","OBJECT_TYPE":"PAYLOAD","FILE":"3795153","BSTAR":"0.00161930000000","TIME_SYSTEM":"UTC","NORAD_CAT_ID":"53605","EPHEMERIS_TYPE":"0","MEAN_ANOMALY":"280.3998","OBJECT_ID":"2022-104T","MEAN_MOTION_DDOT":"0.0000000000000","ELEMENT_SET_NO":"999","LAUNCH_DATE":"2022-08-28","PERIAPSIS":"538.828","INCLINATION":"53.2123","APOAPSIS":"540.683","RCS_SIZE":"LARGE","COUNTRY_CODE":"US","DECAY_DATE":null,"MEAN_ELEMENT_THEORY":"SGP4","PERIOD":"95.438","EPOCH":"2023-02-15T14:16:19.821504","OBJECT_NAME":"STARLINK-4693","TLE_LINE2":"2 53605  53.2123 223.2220 0001341  79.7146 280.3998 15.08836786 26822","CLASSIFICATION_TYPE":"U"},{"EPOCH":"2023-02-15T18:10:51.618432","PERIOD":"95.437","CLASSIFICATION_TYPE":"U","TLE_LINE2":"2 53606  53.2163 212.8221 0001053  87.6221 272.4892 15.08854061 26869","OBJECT_NAME":"STARLINK-4590","COUNTRY_CODE":"US","DECAY_DATE":null,"MEAN_ELEMENT_THEORY":"SGP4","PERIAPSIS":"538.974","INCLINATION":"53.2163","APOAPSIS":"540.431","RCS_SIZE":"LARGE","OBJECT_ID":"2022-104U","MEAN_MOTION_DDOT":"0.0000000000000","ELEMENT_SET_NO":"999","LAUNCH_DATE":"2022-08-28","REV_AT_EPOCH":"2686","FILE":"3795153","OBJECT_TYPE":"PAYLOAD","BSTAR":"0.00031809000000","TIME_SYSTEM":"UTC","NORAD_CAT_ID":"53606","EPHEMERIS_TYPE":"0","MEAN_ANOMALY":"272.4892","MEAN_MOTION_DOT":"0.00004780","GP_ID":"225554756","ECCENTRICITY":"0.00010530","SITE":"AFETR","CENTER_NAME":"EARTH","ARG_OF_PERICENTER":"87.6221","SEMIMAJOR_AXIS":"6917.837","TLE_LINE1":"1 53606U 22104U   23046.75754188  .00004780  00000-0  31809-3 0  9992","REF_FRAME":"TEME","RA_OF_ASC_NODE":"212.8221","MEAN_MOTION":"15.08854061"},{"TLE_LINE1":"1 53607U 22104V   23046.88499555  .00017120  00000-0  10905-2 0  9996","ARG_OF_PERICENTER":"89.4425","SEMIMAJOR_AXIS":"6917.818","CENTER_NAME":"EARTH","SITE":"AFETR","MEAN_MOTION":"15.08860279","RA_OF_ASC_NODE":"217.2060","REF_FRAME":"TEME","EPHEMERIS_TYPE":"0","NORAD_CAT_ID":"53607","MEAN_ANOMALY":"270.6672","TIME_SYSTEM":"UTC","BSTAR":"0.00109050000000","FILE":"3795153","OBJECT_TYPE":"PAYLOAD","REV_AT_EPOCH":"2693","GP_ID":"225555010","ECCENTRICITY":"0.00009160","MEAN_MOTION_DOT":"0.00017120","APOAPSIS":"540.317","RCS_SIZE":"LARGE","INCLINATION":"53.2138","PERIAPSIS":"539.050","LAUNCH_DATE":"2022-08-28","ELEMENT_SET_NO":"999","MEAN_MOTION_DDOT":"0.0000000000000","OBJECT_ID":"2022-104V","TLE_LINE2":"2 53607  53.2138 217.2060 0000916  89.4425 270.6672 15.08860279 26937","CLASSIFICATION_TYPE":"U","OBJECT_NAME":"STARLINK-4591","EPOCH":"2023-02-15T21:14:23.615520","PERIOD":"95.436","MEAN_ELEMENT_THEORY":"SGP4","DECAY_DATE":null,"COUNTRY_CODE":"US"},{"RA_OF_ASC_NODE":"212.2750","REF_FRAME":"TEME","MEAN_MOTION":"15.08886864","CENTER_NAME":"EARTH","SITE":"AFETR","TLE_LINE1":"1 53608U 22104W   23046.89739506  .00032606  00000-0  20547-2 0  9990","SEMIMAJOR_AXIS":"6917.737","ARG_OF_PERICENTER":"83.1482","ECCENTRICITY":"0.00011270","GP_ID":"225555252","MEAN_MOTION_DOT":"0.00032606","OBJECT_TYPE":"PAYLOAD","FILE":"3795153","REV_AT_EPOCH":"2688","TIME_SYSTEM":"UTC","NORAD_CAT_ID":"53608","EPHEMERIS_TYPE":"0","MEAN_ANOMALY":"276.9638","BSTAR":"0.00205470000000","MEAN_MOTION_DDOT":"0.0000000000000","OBJECT_ID":"2022-104W","LAUNCH_DATE":"2022-08-28","ELEMENT_SET_NO":"999","INCLINATION":"53.2153","PERIAPSIS":"538.823","APOAPSIS":"540.382","RCS_SIZE":"LARGE","DECAY_DATE":null,"COUNTRY_CODE":"US","MEAN_ELEMENT_THEORY":"SGP4","PERIOD":"95.435","EPOCH":"2023-02-15T21:32:14.933184","OBJECT_NAME":"STARLINK-4647","TLE_LINE2":"2 53608  53.2153 212.2750 0001127  83.1482 276.9638 15.08886864 26888","CLASSIFICATION_TYPE":"U"},{"TLE_LINE1":"1 53609U 22104X   23046.45343917  .00012467  00000-0  79989-3 0  9998","ARG_OF_PERICENTER":"94.2755","SEMIMAJOR_AXIS":"6917.862","CENTER_NAME":"EARTH","SITE":"AFETR","MEAN_MOTION":"15.08846042","RA_OF_ASC_NODE":"218.7729","REF_FRAME":"TEME","EPHEMERIS_TYPE":"0","NORAD_CAT_ID":"53609","MEAN_ANOMALY":"265.8361","TIME_SYSTEM":"UTC","BSTAR":"0.00079989000000","FILE":"3793706","OBJECT_TYPE":"PAYLOAD","REV_AT_EPOCH":"2687","GP_ID":"225495517","ECCENTRICITY":"0.00010800","MEAN_MOTION_DOT":"0.00012467","APOAPSIS":"540.474","RCS_SIZE":"LARGE","INCLINATION":"53.2160","PERIAPSIS":"538.980","LAUNCH_DATE":"2022-08-28","ELEMENT_SET_NO":"999","MEAN_MOTION_DDOT":"0.0000000000000","OBJECT_ID":"2022-104X","CLASSIFICATION_TYPE":"U","TLE_LINE2":"2 53609  53.2160 218.7729 0001080  94.2755 265.8361 15.08846042 26871","OBJECT_NAME":"STARLINK-4660","EPOCH":"2023-02-15T10:52:57.144288","PERIOD":"95.437","MEAN_ELEMENT_THEORY":"SGP4","DECAY_DATE":null,"COUNTRY_CODE":"US"},{"PERIOD":"95.438","EPOCH":"2023-02-15T18:12:16.375104","OBJECT_NAME":"STARLINK-4610","CLASSIFICATION_TYPE":"U","TLE_LINE2":"2 53610  53.2172 212.8230 0001245  92.4774 267.6360 15.08832341 26867","DECAY_DATE":null,"COUNTRY_CODE":"US","MEAN_ELEMENT_THEORY":"SGP4","INCLINATION":"53.2172","PERIAPSIS":"538.908","APOAPSIS":"540.630","RCS_SIZE":"LARGE","MEAN_MOTION_DDOT":"0.0000000000000","OBJECT_ID":"2022-104Y","LAUNCH_DATE":"2022-08-28","ELEMENT_SET_NO":"999","OBJECT_TYPE":"PAYLOAD","FILE":"3795153","REV_AT_EPOCH":"2686","MEAN_ANOMALY":"267.6360","NORAD_CAT_ID":"53610","EPHEMERIS_TYPE":"0","TIME_SYSTEM":"UTC","BSTAR":"0.00003814000000","ECCENTRICITY":"0.00012450","GP_ID":"225554263","MEAN_MOTION_DOT":"0.00000319","CENTER_NAME":"EARTH","SITE":"AFETR","TLE_LINE1":"1 53610U 22104Y   23046.75852286  .00000319  00000-0  38140-4 0  9995","SEMIMAJOR_AXIS":"6917.904","ARG_OF_PERICENTER":"92.4774","RA_OF_ASC_NODE":"212.8230","REF_FRAME":"TEME","MEAN_MOTION":"15.08832341"},{"MEAN_MOTION":"15.08922458","RA_OF_ASC_NODE":"212.2979","REF_FRAME":"TEME","TLE_LINE1":"1 53611U 22104Z   23046.90106987  .00088464  00000-0  54950-2 0  9995","SEMIMAJOR_AXIS":"6917.628","ARG_OF_PERICENTER":"109.3634","CENTER_NAME":"EARTH","SITE":"AFETR","ECCENTRICITY":"0.00008870","GP_ID":"225555504","MEAN_MOTION_DOT":"0.00088464","EPHEMERIS_TYPE":"0","NORAD_CAT_ID":"53611","MEAN_ANOMALY":"250.7454","TIME_SYSTEM":"UTC","BSTAR":"0.00549500000000","OBJECT_TYPE":"PAYLOAD","FILE":"3795153","REV_AT_EPOCH":"2700","LAUNCH_DATE":"2022-08-28","ELEMENT_SET_NO":"999","MEAN_MOTION_DDOT":"0.0000000000000","OBJECT_ID":"2022-104Z","RCS_SIZE":"LARGE","APOAPSIS":"540.107","INCLINATION":"53.2152","PERIAPSIS":"538.880","MEAN_ELEMENT_THEORY":"SGP4","DECAY_DATE":null,"COUNTRY_CODE":"US","OBJECT_NAME":"STARLINK-4650","CLASSIFICATION_TYPE":"U","TLE_LINE2":"2 53611  53.2152 212.2979 0000887 109.3634 250.7454 15.08922458 27007","PERIOD":"95.432","EPOCH":"2023-02-15T21:37:32.436768"},{"OBJECT_TYPE":"PAYLOAD","FILE":"3795153","REV_AT_EPOCH":"2688","TIME_SYSTEM":"UTC","NORAD_CAT_ID":"53612","EPHEMERIS_TYPE":"0","MEAN_ANOMALY":"268.2345","BSTAR":"0.00025109000000","ECCENTRICITY":"0.00010380","GP_ID":"225555746","MEAN_MOTION_DOT":"0.00003712","CENTER_NAME":"EARTH","SITE":"AFETR","TLE_LINE1":"1 53612U 22104AA  23046.88633646  .00003712  00000-0  25109-3 0  9998","SEMIMAJOR_AXIS":"6917.842","ARG_OF_PERICENTER":"91.8766","RA_OF_ASC_NODE":"212.2005","REF_FRAME":"TEME","MEAN_MOTION":"15.08852718","PERIOD":"95.437","EPOCH":"2023-02-15T21:16:19.470144","OBJECT_NAME":"STARLINK-4658","TLE_LINE2":"2 53612  53.2178 212.2005 0001038  91.8766 268.2345 15.08852718 26885","CLASSIFICATION_TYPE":"U","DECAY_DATE":null,"COUNTRY_CODE":"US","MEAN_ELEMENT_THEORY":"SGP4","INCLINATION":"53.2178","PERIAPSIS":"538.988","APOAPSIS":"540.425","RCS_SIZE":"LARGE","MEAN_MOTION_DDOT":"0.0000000000000","OBJECT_ID":"2022-104AA","LAUNCH_DATE":"2022-08-28","ELEMENT_SET_NO":"999"}];
